<?xml version="1.0" encoding="UTF-8"?>
<ndm xmlns:xsi="http://www.w3.org/2001/XMLSchema-instance" xsi:noNamespaceSchemaLocation="https://sanaregistry.org/r/ndmxml_unqualified/ndmxml-2.0.0-master-2.0.xsd">
<omm id="CCSDS_OMM_VERS" version="2.0">
<header><CREATION_DATE/><ORIGINATOR/></header><body><segment><metadata><OBJECT_NAME>ORBCOMM FM24 [-]</OBJECT_NAME><OBJECT_ID>1998-053D</OBJECT_ID><CENTER_NAME>EARTH</CENTER_NAME><REF_FRAME>TEME</REF_FRAME><TIME_SYSTEM>UTC</TIME_SYSTEM><MEAN_ELEMENT_THEORY>SGP4</MEAN_ELEMENT_THEORY></metadata><data><meanElements><EPOCH>2023-11-27T07:23:21.128352</EPOCH><MEAN_MOTION>14.34938230</MEAN_MOTION><ECCENTRICITY>.0002721</ECCENTRICITY><INCLINATION>45.0084</INCLINATION><RA_OF_ASC_NODE>74.4921</RA_OF_ASC_NODE><ARG_OF_PERICENTER>238.9655</ARG_OF_PERICENTER><MEAN_ANOMALY>121.0925</MEAN_ANOMALY></meanElements><tleParameters><EPHEMERIS_TYPE>0</EPHEMERIS_TYPE><CLASSIFICATION_TYPE>U</CLASSIFICATION_TYPE><NORAD_CAT_ID>25478</NORAD_CAT_ID><ELEMENT_SET_NO>999</ELEMENT_SET_NO><REV_AT_EPOCH>31579</REV_AT_EPOCH><BSTAR>.79992E-3</BSTAR><MEAN_MOTION_DOT>.2155E-4</MEAN_MOTION_DOT><MEAN_MOTION_DDOT>0</MEAN_MOTION_DDOT></tleParameters></data></segment></body></omm>
<omm id="CCSDS_OMM_VERS" version="2.0">
<header><CREATION_DATE/><ORIGINATOR/></header><body><segment><metadata><OBJECT_NAME>ORBCOMM FM25 [-]</OBJECT_NAME><OBJECT_ID>1998-053E</OBJECT_ID><CENTER_NAME>EARTH</CENTER_NAME><REF_FRAME>TEME</REF_FRAME><TIME_SYSTEM>UTC</TIME_SYSTEM><MEAN_ELEMENT_THEORY>SGP4</MEAN_ELEMENT_THEORY></metadata><data><meanElements><EPOCH>2023-11-27T08:12:17.898912</EPOCH><MEAN_MOTION>14.34921872</MEAN_MOTION><ECCENTRICITY>.0004768</ECCENTRICITY><INCLINATION>45.0072</INCLINATION><RA_OF_ASC_NODE>72.5664</RA_OF_ASC_NODE><ARG_OF_PERICENTER>264.7426</ARG_OF_PERICENTER><MEAN_ANOMALY>95.2877</MEAN_ANOMALY></meanElements><tleParameters><EPHEMERIS_TYPE>0</EPHEMERIS_TYPE><CLASSIFICATION_TYPE>U</CLASSIFICATION_TYPE><NORAD_CAT_ID>25479</NORAD_CAT_ID><ELEMENT_SET_NO>999</ELEMENT_SET_NO><REV_AT_EPOCH>31609</REV_AT_EPOCH><BSTAR>.83908E-3</BSTAR><MEAN_MOTION_DOT>.2267E-4</MEAN_MOTION_DOT><MEAN_MOTION_DDOT>0</MEAN_MOTION_DDOT></tleParameters></data></segment></body></omm>
<omm id="CCSDS_OMM_VERS" version="2.0">
<header><CREATION_DATE/><ORIGINATOR/></header><body><segment><metadata><OBJECT_NAME>ORBCOMM FM26 [-]</OBJECT_NAME><OBJECT_ID>1998-053F</OBJECT_ID><CENTER_NAME>EARTH</CENTER_NAME><REF_FRAME>TEME</REF_FRAME><TIME_SYSTEM>UTC</TIME_SYSTEM><MEAN_ELEMENT_THEORY>SGP4</MEAN_ELEMENT_THEORY></metadata><data><meanElements><EPOCH>2023-11-27T06:58:28.664256</EPOCH><MEAN_MOTION>14.34468526</MEAN_MOTION><ECCENTRICITY>.0006198</ECCENTRICITY><INCLINATION>45.0081</INCLINATION><RA_OF_ASC_NODE>66.2999</RA_OF_ASC_NODE><ARG_OF_PERICENTER>290.4376</ARG_OF_PERICENTER><MEAN_ANOMALY>69.5805</MEAN_ANOMALY></meanElements><tleParameters><EPHEMERIS_TYPE>0</EPHEMERIS_TYPE><CLASSIFICATION_TYPE>U</CLASSIFICATION_TYPE><NORAD_CAT_ID>25480</NORAD_CAT_ID><ELEMENT_SET_NO>999</ELEMENT_SET_NO><REV_AT_EPOCH>31603</REV_AT_EPOCH><BSTAR>.7293E-3</BSTAR><MEAN_MOTION_DOT>.1934E-4</MEAN_MOTION_DOT><MEAN_MOTION_DDOT>0</MEAN_MOTION_DDOT></tleParameters></data></segment></body></omm>
<omm id="CCSDS_OMM_VERS" version="2.0">
<header><CREATION_DATE/><ORIGINATOR/></header><body><segment><metadata><OBJECT_NAME>ORBCOMM FM28 [-]</OBJECT_NAME><OBJECT_ID>1998-053H</OBJECT_ID><CENTER_NAME>EARTH</CENTER_NAME><REF_FRAME>TEME</REF_FRAME><TIME_SYSTEM>UTC</TIME_SYSTEM><MEAN_ELEMENT_THEORY>SGP4</MEAN_ELEMENT_THEORY></metadata><data><meanElements><EPOCH>2023-11-27T02:07:40.698336</EPOCH><MEAN_MOTION>14.35382302</MEAN_MOTION><ECCENTRICITY>.0004895</ECCENTRICITY><INCLINATION>45.0077</INCLINATION><RA_OF_ASC_NODE>13.0731</RA_OF_ASC_NODE><ARG_OF_PERICENTER>306.7698</ARG_OF_PERICENTER><MEAN_ANOMALY>53.2700</MEAN_ANOMALY></meanElements><tleParameters><EPHEMERIS_TYPE>0</EPHEMERIS_TYPE><CLASSIFICATION_TYPE>U</CLASSIFICATION_TYPE><NORAD_CAT_ID>25482</NORAD_CAT_ID><ELEMENT_SET_NO>999</ELEMENT_SET_NO><REV_AT_EPOCH>31665</REV_AT_EPOCH><BSTAR>.79255E-3</BSTAR><MEAN_MOTION_DOT>.2155E-4</MEAN_MOTION_DOT><MEAN_MOTION_DDOT>0</MEAN_MOTION_DDOT></tleParameters></data></segment></body></omm>
<omm id="CCSDS_OMM_VERS" version="2.0">
<header><CREATION_DATE/><ORIGINATOR/></header><body><segment><metadata><OBJECT_NAME>ORBCOMM FM30 [-]</OBJECT_NAME><OBJECT_ID>1999-065A</OBJECT_ID><CENTER_NAME>EARTH</CENTER_NAME><REF_FRAME>TEME</REF_FRAME><TIME_SYSTEM>UTC</TIME_SYSTEM><MEAN_ELEMENT_THEORY>SGP4</MEAN_ELEMENT_THEORY></metadata><data><meanElements><EPOCH>2023-11-27T14:47:58.679232</EPOCH><MEAN_MOTION>14.34607815</MEAN_MOTION><ECCENTRICITY>.0006425</ECCENTRICITY><INCLINATION>45.0317</INCLINATION><RA_OF_ASC_NODE>250.1339</RA_OF_ASC_NODE><ARG_OF_PERICENTER>36.3046</ARG_OF_PERICENTER><MEAN_ANOMALY>323.8237</MEAN_ANOMALY></meanElements><tleParameters><EPHEMERIS_TYPE>0</EPHEMERIS_TYPE><CLASSIFICATION_TYPE>U</CLASSIFICATION_TYPE><NORAD_CAT_ID>25980</NORAD_CAT_ID><ELEMENT_SET_NO>999</ELEMENT_SET_NO><REV_AT_EPOCH>25287</REV_AT_EPOCH><BSTAR>.82945E-3</BSTAR><MEAN_MOTION_DOT>.2225E-4</MEAN_MOTION_DOT><MEAN_MOTION_DDOT>0</MEAN_MOTION_DDOT></tleParameters></data></segment></body></omm>
<omm id="CCSDS_OMM_VERS" version="2.0">
<header><CREATION_DATE/><ORIGINATOR/></header><body><segment><metadata><OBJECT_NAME>ORBCOMM FM31 [-]</OBJECT_NAME><OBJECT_ID>1999-065B</OBJECT_ID><CENTER_NAME>EARTH</CENTER_NAME><REF_FRAME>TEME</REF_FRAME><TIME_SYSTEM>UTC</TIME_SYSTEM><MEAN_ELEMENT_THEORY>SGP4</MEAN_ELEMENT_THEORY></metadata><data><meanElements><EPOCH>2023-11-27T20:41:20.108256</EPOCH><MEAN_MOTION>14.34629501</MEAN_MOTION><ECCENTRICITY>.0003313</ECCENTRICITY><INCLINATION>45.0233</INCLINATION><RA_OF_ASC_NODE>242.8005</RA_OF_ASC_NODE><ARG_OF_PERICENTER>51.8090</ARG_OF_PERICENTER><MEAN_ANOMALY>308.3055</MEAN_ANOMALY></meanElements><tleParameters><EPHEMERIS_TYPE>0</EPHEMERIS_TYPE><CLASSIFICATION_TYPE>U</CLASSIFICATION_TYPE><NORAD_CAT_ID>25981</NORAD_CAT_ID><ELEMENT_SET_NO>999</ELEMENT_SET_NO><REV_AT_EPOCH>25246</REV_AT_EPOCH><BSTAR>.72527E-3</BSTAR><MEAN_MOTION_DOT>.1928E-4</MEAN_MOTION_DOT><MEAN_MOTION_DDOT>0</MEAN_MOTION_DDOT></tleParameters></data></segment></body></omm>
<omm id="CCSDS_OMM_VERS" version="2.0">
<header><CREATION_DATE/><ORIGINATOR/></header><body><segment><metadata><OBJECT_NAME>ORBCOMM FM32 [+]</OBJECT_NAME><OBJECT_ID>1999-065C</OBJECT_ID><CENTER_NAME>EARTH</CENTER_NAME><REF_FRAME>TEME</REF_FRAME><TIME_SYSTEM>UTC</TIME_SYSTEM><MEAN_ELEMENT_THEORY>SGP4</MEAN_ELEMENT_THEORY></metadata><data><meanElements><EPOCH>2023-11-27T22:24:30.463488</EPOCH><MEAN_MOTION>14.33574895</MEAN_MOTION><ECCENTRICITY>.0005258</ECCENTRICITY><INCLINATION>45.0160</INCLINATION><RA_OF_ASC_NODE>255.0620</RA_OF_ASC_NODE><ARG_OF_PERICENTER>60.3609</ARG_OF_PERICENTER><MEAN_ANOMALY>299.7761</MEAN_ANOMALY></meanElements><tleParameters><EPHEMERIS_TYPE>0</EPHEMERIS_TYPE><CLASSIFICATION_TYPE>U</CLASSIFICATION_TYPE><NORAD_CAT_ID>25982</NORAD_CAT_ID><ELEMENT_SET_NO>999</ELEMENT_SET_NO><REV_AT_EPOCH>25325</REV_AT_EPOCH><BSTAR>.7351E-3</BSTAR><MEAN_MOTION_DOT>.1913E-4</MEAN_MOTION_DOT><MEAN_MOTION_DDOT>0</MEAN_MOTION_DDOT></tleParameters></data></segment></body></omm>

</ndm>
