ORBCOMM FM24 [-]        
1 25478U 98053D   23331.30788343  .00002155  00000+0  79992-3 0  9990
2 25478  45.0084  74.4921 0002721 238.9655 121.0925 14.34938230315798
ORBCOMM FM25 [-]        
1 25479U 98053E   23331.34187383  .00002267  00000+0  83908-3 0  9998
2 25479  45.0072  72.5664 0004768 264.7426  95.2877 14.34921872316091
ORBCOMM FM26 [-]        
1 25480U 98053F   23331.29060954  .00001934  00000+0  72930-3 0  9991
2 25480  45.0081  66.2999 0006198 290.4376  69.5805 14.34468526316034
ORBCOMM FM28 [-]        
1 25482U 98053H   23331.08866549  .00002155  00000+0  79255-3 0  9997
2 25482  45.0077  13.0731 0004895 306.7698  53.2700 14.35382302316655
ORBCOMM FM30 [-]        
1 25980U 99065A   23331.61665138  .00002225  00000+0  82945-3 0  9992
2 25980  45.0317 250.1339 0006425  36.3046 323.8237 14.34607815252879
ORBCOMM FM31 [-]        
1 25981U 99065B   23331.86203829  .00001928  00000+0  72527-3 0  9999
2 25981  45.0233 242.8005 0003313  51.8090 308.3055 14.34629501252466
ORBCOMM FM32 [+]        
1 25982U 99065C   23331.93368592  .00001913  00000+0  73510-3 0  9994
2 25982  45.0160 255.0620 0005258  60.3609 299.7761 14.33574895253255
